HST                     
1 20580U 90037B   23177.51038351  .00003598  00000+0  18638-3 0  9993
2 20580  28.4682 205.9674 0002840 118.5741  34.1836 15.13349519623143